[{"OBJECT_NAME":"ONEWEB-0027","OBJECT_ID":"2020-020J","EPOCH":"2026-04-27T06:38:32.797536","MEAN_MOTION":13.1765442,"ECCENTRICITY":0.0001321,"INCLINATION":87.9197,"RA_OF_ASC_NODE":15.9619,"ARG_OF_PERICENTER":69.1881,"MEAN_ANOMALY":290.9392,"EPHEMERIS_TYPE":0,"CLASSIFICATION_TYPE":"U","NORAD_CAT_ID":45432,"ELEMENT_SET_NO":999,"REV_AT_EPOCH":29965,"BSTAR":-0.0024107,"MEAN_MOTION_DOT":-9.23e-06,"MEAN_MOTION_DDOT":0.0},{"OBJECT_NAME":"ONEWEB-0064","OBJECT_ID":"2020-020K","EPOCH":"2026-04-27T05:16:00.684768","MEAN_MOTION":13.11416586,"ECCENTRICITY":0.0001742,"INCLINATION":87.8923,"RA_OF_ASC_NODE":31.2004,"ARG_OF_PERICENTER":73.8187,"MEAN_ANOMALY":286.3132,"EPHEMERIS_TYPE":0,"CLASSIFICATION_TYPE":"U","NORAD_CAT_ID":45433,"ELEMENT_SET_NO":999,"REV_AT_EPOCH":29600,"BSTAR":0.0012737000000000002,"MEAN_MOTION_DOT":4.64e-06,"MEAN_MOTION_DDOT":0.0},{"OBJECT_NAME":"ONEWEB-0018","OBJECT_ID":"2020-020L","EPOCH":"2026-04-27T06:02:23.430912","MEAN_MOTION":13.11417598,"ECCENTRICITY":0.0002213,"INCLINATION":87.8923,"RA_OF_ASC_NODE":31.1932,"ARG_OF_PERICENTER":76.018,"MEAN_ANOMALY":284.1194,"EPHEMERIS_TYPE":0,"CLASSIFICATION_TYPE":"U","NORAD_CAT_ID":45434,"ELEMENT_SET_NO":999,"REV_AT_EPOCH":29595,"BSTAR":-0.0012328,"MEAN_MOTION_DOT":-4.24e-06,"MEAN_MOTION_DDOT":0.0},{"OBJECT_NAME":"ONEWEB-0083","OBJECT_ID":"2020-020M","EPOCH":"2026-04-27T05:48:40.750848","MEAN_MOTION":13.11502746,"ECCENTRICITY":0.000178,"INCLINATION":87.8933,"RA_OF_ASC_NODE":31.1851,"ARG_OF_PERICENTER":71.6111,"MEAN_ANOMALY":288.521,"EPHEMERIS_TYPE":0,"CLASSIFICATION_TYPE":"U","NORAD_CAT_ID":45435,"ELEMENT_SET_NO":999,"REV_AT_EPOCH":29599,"BSTAR":0.016333,"MEAN_MOTION_DOT":5.812e-05,"MEAN_MOTION_DDOT":0.0},{"OBJECT_NAME":"ONEWEB-0095","OBJECT_ID":"2020-020N","EPOCH":"2026-04-27T05:35:44.517696","MEAN_MOTION":13.11417413,"ECCENTRICITY":0.0001118,"INCLINATION":87.8931,"RA_OF_ASC_NODE":31.1954,"ARG_OF_PERICENTER":89.9604,"MEAN_ANOMALY":270.1652,"EPHEMERIS_TYPE":0,"CLASSIFICATION_TYPE":"U","NORAD_CAT_ID":45436,"ELEMENT_SET_NO":999,"REV_AT_EPOCH":29599,"BSTAR":-0.00038624000000000004,"MEAN_MOTION_DOT":-1.24e-06,"MEAN_MOTION_DDOT":0.0},{"OBJECT_NAME":"ONEWEB-0092","OBJECT_ID":"2020-020P","EPOCH":"2026-04-27T06:45:08.143200","MEAN_MOTION":13.11416661,"ECCENTRICITY":0.0001645,"INCLINATION":87.8931,"RA_OF_ASC_NODE":31.1861,"ARG_OF_PERICENTER":88.5646,"MEAN_ANOMALY":271.567,"EPHEMERIS_TYPE":0,"CLASSIFICATION_TYPE":"U","NORAD_CAT_ID":45437,"ELEMENT_SET_NO":999,"REV_AT_EPOCH":29611,"BSTAR":0.0015340000000000002,"MEAN_MOTION_DOT":5.56e-06,"MEAN_MOTION_DDOT":0.0},{"OBJECT_NAME":"ONEWEB-0085","OBJECT_ID":"2020-020Q","EPOCH":"2026-04-27T05:47:44.430144","MEAN_MOTION":13.11416633,"ECCENTRICITY":0.0001811,"INCLINATION":87.8924,"RA_OF_ASC_NODE":31.1965,"ARG_OF_PERICENTER":79.8433,"MEAN_ANOMALY":280.2899,"EPHEMERIS_TYPE":0,"CLASSIFICATION_TYPE":"U","NORAD_CAT_ID":45438,"ELEMENT_SET_NO":999,"REV_AT_EPOCH":29599,"BSTAR":-0.0011853,"MEAN_MOTION_DOT":-4.07e-06,"MEAN_MOTION_DDOT":0.0},{"OBJECT_NAME":"ONEWEB-0096","OBJECT_ID":"2020-020R","EPOCH":"2026-04-27T04:00:18.407808","MEAN_MOTION":13.11417447,"ECCENTRICITY":0.0001899,"INCLINATION":87.8933,"RA_OF_ASC_NODE":31.2022,"ARG_OF_PERICENTER":81.1239,"MEAN_ANOMALY":279.0104,"EPHEMERIS_TYPE":0,"CLASSIFICATION_TYPE":"U","NORAD_CAT_ID":45439,"ELEMENT_SET_NO":999,"REV_AT_EPOCH":29597,"BSTAR":-0.0012776,"MEAN_MOTION_DOT":-4.4e-06,"MEAN_MOTION_DDOT":0.0},{"OBJECT_NAME":"ONEWEB-0037","OBJECT_ID":"2020-020S","EPOCH":"2026-04-27T05:15:53.709696","MEAN_MOTION":13.11907033,"ECCENTRICITY":0.0001758,"INCLINATION":87.8943,"RA_OF_ASC_NODE":31.1694,"ARG_OF_PERICENTER":80.5214,"MEAN_ANOMALY":279.6113,"EPHEMERIS_TYPE":0,"CLASSIFICATION_TYPE":"U","NORAD_CAT_ID":45440,"ELEMENT_SET_NO":999,"REV_AT_EPOCH":29601,"BSTAR":0.0011258,"MEAN_MOTION_DOT":4.15e-06,"MEAN_MOTION_DDOT":0.0},{"OBJECT_NAME":"ONEWEB-0042","OBJECT_ID":"2020-020T","EPOCH":"2026-04-27T05:35:20.147712","MEAN_MOTION":13.11415852,"ECCENTRICITY":0.000189,"INCLINATION":87.8931,"RA_OF_ASC_NODE":31.1861,"ARG_OF_PERICENTER":81.3243,"MEAN_ANOMALY":278.8099,"EPHEMERIS_TYPE":0,"CLASSIFICATION_TYPE":"U","NORAD_CAT_ID":45441,"ELEMENT_SET_NO":999,"REV_AT_EPOCH":29598,"BSTAR":-0.00025980999999999997,"MEAN_MOTION_DOT":-7.9e-07,"MEAN_MOTION_DDOT":0.0},{"OBJECT_NAME":"ONEWEB-0098","OBJECT_ID":"2020-020U","EPOCH":"2026-04-27T05:29:25.536192","MEAN_MOTION":13.11413733,"ECCENTRICITY":0.000184,"INCLINATION":87.893,"RA_OF_ASC_NODE":31.1976,"ARG_OF_PERICENTER":76.5155,"MEAN_ANOMALY":283.6178,"EPHEMERIS_TYPE":0,"CLASSIFICATION_TYPE":"U","NORAD_CAT_ID":45442,"ELEMENT_SET_NO":999,"REV_AT_EPOCH":29596,"BSTAR":0.00024835,"MEAN_MOTION_DOT":1.01e-06,"MEAN_MOTION_DDOT":0.0},{"OBJECT_NAME":"ONEWEB-0055","OBJECT_ID":"2020-020V","EPOCH":"2026-04-27T06:53:53.850912","MEAN_MOTION":13.1178323,"ECCENTRICITY":0.0002441,"INCLINATION":87.893,"RA_OF_ASC_NODE":31.1856,"ARG_OF_PERICENTER":74.7011,"MEAN_ANOMALY":285.4387,"EPHEMERIS_TYPE":0,"CLASSIFICATION_TYPE":"U","NORAD_CAT_ID":45443,"ELEMENT_SET_NO":999,"REV_AT_EPOCH":29594,"BSTAR":0.069824,"MEAN_MOTION_DOT":0.00024959,"MEAN_MOTION_DDOT":0.0},{"OBJECT_NAME":"ONEWEB-0093","OBJECT_ID":"2020-020W","EPOCH":"2026-04-27T06:19:41.118240","MEAN_MOTION":13.11420053,"ECCENTRICITY":0.0002093,"INCLINATION":87.8935,"RA_OF_ASC_NODE":31.1808,"ARG_OF_PERICENTER":88.6131,"MEAN_ANOMALY":271.5236,"EPHEMERIS_TYPE":0,"CLASSIFICATION_TYPE":"U","NORAD_CAT_ID":45444,"ELEMENT_SET_NO":999,"REV_AT_EPOCH":29600,"BSTAR":-0.00028577,"MEAN_MOTION_DOT":-8.9e-07,"MEAN_MOTION_DDOT":0.0},{"OBJECT_NAME":"ONEWEB-0029","OBJECT_ID":"2020-020X","EPOCH":"2026-04-27T06:42:41.619168","MEAN_MOTION":13.11418656,"ECCENTRICITY":0.0001984,"INCLINATION":87.8922,"RA_OF_ASC_NODE":31.187,"ARG_OF_PERICENTER":80.2529,"MEAN_ANOMALY":279.8823,"EPHEMERIS_TYPE":0,"CLASSIFICATION_TYPE":"U","NORAD_CAT_ID":45445,"ELEMENT_SET_NO":999,"REV_AT_EPOCH":29598,"BSTAR":0.0014248,"MEAN_MOTION_DOT":5.18e-06,"MEAN_MOTION_DDOT":0.0},{"OBJECT_NAME":"ONEWEB-0068","OBJECT_ID":"2020-020Y","EPOCH":"2026-04-27T06:19:17.618304","MEAN_MOTION":13.11419247,"ECCENTRICITY":0.0002029,"INCLINATION":87.8936,"RA_OF_ASC_NODE":31.1841,"ARG_OF_PERICENTER":81.4623,"MEAN_ANOMALY":278.6735,"EPHEMERIS_TYPE":0,"CLASSIFICATION_TYPE":"U","NORAD_CAT_ID":45446,"ELEMENT_SET_NO":999,"REV_AT_EPOCH":29592,"BSTAR":-0.00043884,"MEAN_MOTION_DOT":-1.43e-06,"MEAN_MOTION_DDOT":0.0},{"OBJECT_NAME":"ONEWEB-0046","OBJECT_ID":"2020-020Z","EPOCH":"2026-04-27T06:07:16.327776","MEAN_MOTION":13.11418667,"ECCENTRICITY":0.0001858,"INCLINATION":87.8936,"RA_OF_ASC_NODE":31.1929,"ARG_OF_PERICENTER":86.9279,"MEAN_ANOMALY":273.2062,"EPHEMERIS_TYPE":0,"CLASSIFICATION_TYPE":"U","NORAD_CAT_ID":45447,"ELEMENT_SET_NO":999,"REV_AT_EPOCH":29593,"BSTAR":-0.0011221,"MEAN_MOTION_DOT":-3.85e-06,"MEAN_MOTION_DDOT":0.0},{"OBJECT_NAME":"ONEWEB-0063","OBJECT_ID":"2020-020AA","EPOCH":"2026-04-27T04:58:55.961760","MEAN_MOTION":13.11417493,"ECCENTRICITY":0.0001677,"INCLINATION":87.8934,"RA_OF_ASC_NODE":31.1999,"ARG_OF_PERICENTER":84.9064,"MEAN_ANOMALY":275.2256,"EPHEMERIS_TYPE":0,"CLASSIFICATION_TYPE":"U","NORAD_CAT_ID":45448,"ELEMENT_SET_NO":999,"REV_AT_EPOCH":29601,"BSTAR":0.0016532,"MEAN_MOTION_DOT":5.99e-06,"MEAN_MOTION_DDOT":0.0},{"OBJECT_NAME":"ONEWEB-0019","OBJECT_ID":"2020-020AB","EPOCH":"2026-04-27T04:04:59.721024","MEAN_MOTION":13.11417385,"ECCENTRICITY":0.000183,"INCLINATION":87.8926,"RA_OF_ASC_NODE":31.1968,"ARG_OF_PERICENTER":73.5278,"MEAN_ANOMALY":286.6051,"EPHEMERIS_TYPE":0,"CLASSIFICATION_TYPE":"U","NORAD_CAT_ID":45449,"ELEMENT_SET_NO":999,"REV_AT_EPOCH":29585,"BSTAR":-0.0014491,"MEAN_MOTION_DOT":-5.01e-06,"MEAN_MOTION_DDOT":0.0},{"OBJECT_NAME":"ONEWEB-0094","OBJECT_ID":"2020-020AC","EPOCH":"2026-04-27T05:59:38.858784","MEAN_MOTION":13.17652219,"ECCENTRICITY":0.0002021,"INCLINATION":87.9193,"RA_OF_ASC_NODE":15.9659,"ARG_OF_PERICENTER":76.5686,"MEAN_ANOMALY":283.5671,"EPHEMERIS_TYPE":0,"CLASSIFICATION_TYPE":"U","NORAD_CAT_ID":45450,"ELEMENT_SET_NO":999,"REV_AT_EPOCH":29960,"BSTAR":0.0001316,"MEAN_MOTION_DOT":6.4e-07,"MEAN_MOTION_DDOT":0.0},{"OBJECT_NAME":"ONEWEB-0087","OBJECT_ID":"2020-020AD","EPOCH":"2026-04-27T07:03:15.193440","MEAN_MOTION":13.11416221,"ECCENTRICITY":0.0002124,"INCLINATION":87.8941,"RA_OF_ASC_NODE":31.1531,"ARG_OF_PERICENTER":80.9822,"MEAN_ANOMALY":279.1546,"EPHEMERIS_TYPE":0,"CLASSIFICATION_TYPE":"U","NORAD_CAT_ID":45451,"ELEMENT_SET_NO":999,"REV_AT_EPOCH":29591,"BSTAR":0.00146,"MEAN_MOTION_DOT":5.3e-06,"MEAN_MOTION_DDOT":0.0},{"OBJECT_NAME":"ONEWEB-0082","OBJECT_ID":"2020-020AE","EPOCH":"2026-04-27T06:58:34.021920","MEAN_MOTION":13.11415988,"ECCENTRICITY":0.0002077,"INCLINATION":87.8933,"RA_OF_ASC_NODE":31.1742,"ARG_OF_PERICENTER":79.9354,"MEAN_ANOMALY":280.2008,"EPHEMERIS_TYPE":0,"CLASSIFICATION_TYPE":"U","NORAD_CAT_ID":45452,"ELEMENT_SET_NO":999,"REV_AT_EPOCH":29600,"BSTAR":0.0015818,"MEAN_MOTION_DOT":5.73e-06,"MEAN_MOTION_DDOT":0.0},{"OBJECT_NAME":"ONEWEB-0050","OBJECT_ID":"2020-020AF","EPOCH":"2026-04-27T07:28:48.552384","MEAN_MOTION":14.90162038,"ECCENTRICITY":0.0005279,"INCLINATION":88.9273,"RA_OF_ASC_NODE":240.1176,"ARG_OF_PERICENTER":131.2573,"MEAN_ANOMALY":228.9111,"EPHEMERIS_TYPE":0,"CLASSIFICATION_TYPE":"U","NORAD_CAT_ID":45453,"ELEMENT_SET_NO":999,"REV_AT_EPOCH":33280,"BSTAR":0.00031111,"MEAN_MOTION_DOT":3.032e-05,"MEAN_MOTION_DDOT":0.0},{"OBJECT_NAME":"ONEWEB-0034","OBJECT_ID":"2020-020AG","EPOCH":"2026-04-27T05:40:04.290528","MEAN_MOTION":13.11089773,"ECCENTRICITY":0.0001254,"INCLINATION":87.8931,"RA_OF_ASC_NODE":31.1877,"ARG_OF_PERICENTER":78.5839,"MEAN_ANOMALY":281.543,"EPHEMERIS_TYPE":0,"CLASSIFICATION_TYPE":"U","NORAD_CAT_ID":45454,"ELEMENT_SET_NO":999,"REV_AT_EPOCH":29591,"BSTAR":-0.08219,"MEAN_MOTION_DOT":-0.00028888,"MEAN_MOTION_DDOT":0.0}]